{
  "type": "FeatureCollection",
  "features": [
    {
      "type": "Feature",
      "properties": {
        "norad_id": 35744,
        "name": "IRIDIUM 33 DEB",
        "group": "iridium-33-debris",
        "lat": 68.43886316260958,
        "lon": -24.63237835709426,
        "alt_km": 660.2225802158428,
        "timestamp": "2025-12-11T10:53:16.274476+00:00",
        "meta_object_name": "IRIDIUM 33 DEB",
        "meta_object_id": "1997-051RX",
        "meta_epoch": "2025-12-10T16:36:57.938400",
        "meta_mean_motion": 14.70949157,
        "meta_eccentricity": 0.00200944,
        "meta_inclination": 86.329,
        "meta_ra_of_asc_node": 326.3608,
        "meta_arg_of_pericenter": 199.977,
        "meta_mean_anomaly": 160.0662,
        "meta_ephemeris_type": 0,
        "meta_classification_type": "U",
        "meta_norad_cat_id": 35744,
        "meta_element_set_no": 999,
        "meta_rev_at_epoch": 87301,
        "meta_bstar": 0.0019468967,
        "meta_mean_motion_dot": 0.00011996,
        "meta_mean_motion_ddot": 0,
        "tle_line1": "1 35744U 97051RX  25344.69233725  .00011996  00000+0  19469-2 0  9996",
        "tle_line2": "2 35744  86.3290 326.3608 0020094 199.9770 160.0662 14.70949157873015"
      },
      "geometry": {
        "type": "Point",
        "coordinates": [
          -24.63237835709426,
          68.43886316260958
        ]
      }
    },
    {
      "type": "Feature",
      "properties": {
        "norad_id": 35797,
        "name": "IRIDIUM 33 DEB",
        "group": "iridium-33-debris",
        "lat": 77.05818987567334,
        "lon": 134.37359505054633,
        "alt_km": 607.697353006628,
        "timestamp": "2025-12-11T10:53:16.274488+00:00",
        "meta_object_name": "IRIDIUM 33 DEB",
        "meta_object_id": "1997-051SF",
        "meta_epoch": "2025-12-11T05:34:05.708928",
        "meta_mean_motion": 14.82689252,
        "meta_eccentricity": 0.0013162,
        "meta_inclination": 86.3363,
        "meta_ra_of_asc_node": 330.6656,
        "meta_arg_of_pericenter": 152.8945,
        "meta_mean_anomaly": 207.2968,
        "meta_ephemeris_type": 0,
        "meta_classification_type": "U",
        "meta_norad_cat_id": 35797,
        "meta_element_set_no": 999,
        "meta_rev_at_epoch": 87318,
        "meta_bstar": 0.0027879,
        "meta_mean_motion_dot": 0.00022588,
        "meta_mean_motion_ddot": 0,
        "tle_line1": "1 35797U 97051SF  25345.23201052  .00022588  00000+0  27879-2 0  9996",
        "tle_line2": "2 35797  86.3363 330.6656 0013162 152.8945 207.2968 14.82689252873186"
      },
      "geometry": {
        "type": "Point",
        "coordinates": [
          134.37359505054633,
          77.05818987567334
        ]
      }
    },
    {
      "type": "Feature",
      "properties": {
        "norad_id": 35806,
        "name": "IRIDIUM 33 DEB",
        "group": "iridium-33-debris",
        "lat": 13.780407872678149,
        "lon": -159.70381088691852,
        "alt_km": 702.3201234519065,
        "timestamp": "2025-12-11T10:53:16.274499+00:00",
        "meta_object_name": "IRIDIUM 33 DEB",
        "meta_object_id": "1997-051SQ",
        "meta_epoch": "2025-12-10T20:56:47.284800",
        "meta_mean_motion": 14.5731398,
        "meta_eccentricity": 0.0016091,
        "meta_inclination": 86.344,
        "meta_ra_of_asc_node": 21.4504,
        "meta_arg_of_pericenter": 81.1516,
        "meta_mean_anomaly": 279.1514,
        "meta_ephemeris_type": 0,
        "meta_classification_type": "U",
        "meta_norad_cat_id": 35806,
        "meta_element_set_no": 999,
        "meta_rev_at_epoch": 86297,
        "meta_bstar": 0.0016785,
        "meta_mean_motion_dot": 7.632e-05,
        "meta_mean_motion_ddot": 0,
        "tle_line1": "1 35806U 97051SQ  25344.87276950  .00007632  00000+0  16785-2 0  9992",
        "tle_line2": "2 35806  86.3440  21.4504 0016091  81.1516 279.1514 14.57313980862976"
      },
      "geometry": {
        "type": "Point",
        "coordinates": [
          -159.70381088691852,
          13.780407872678149
        ]
      }
    },
    {
      "type": "Feature",
      "properties": {
        "norad_id": 35809,
        "name": "IRIDIUM 33 DEB",
        "group": "iridium-33-debris",
        "lat": 84.18667758505889,
        "lon": 15.028753321646295,
        "alt_km": 642.1530021032095,
        "timestamp": "2025-12-11T10:53:16.274530+00:00",
        "meta_object_name": "IRIDIUM 33 DEB",
        "meta_object_id": "1997-051ST",
        "meta_epoch": "2025-12-10T16:35:56.421600",
        "meta_mean_motion": 14.75629145,
        "meta_eccentricity": 0.00097103,
        "meta_inclination": 86.329,
        "meta_ra_of_asc_node": 336.2813,
        "meta_arg_of_pericenter": 251.0565,
        "meta_mean_anomaly": 108.9602,
        "meta_ephemeris_type": 0,
        "meta_classification_type": "U",
        "meta_norad_cat_id": 35809,
        "meta_element_set_no": 999,
        "meta_rev_at_epoch": 86777,
        "meta_bstar": 0.0026432017,
        "meta_mean_motion_dot": 0.00018102,
        "meta_mean_motion_ddot": 0,
        "tle_line1": "1 35809U 97051ST  25344.69162525  .00018102  00000+0  26432-2 0  9991",
        "tle_line2": "2 35809  86.3290 336.2813 0009710 251.0565 108.9602 14.75629145867777"
      },
      "geometry": {
        "type": "Point",
        "coordinates": [
          15.028753321646295,
          84.18667758505889
        ]
      }
    },
    {
      "type": "Feature",
      "properties": {
        "norad_id": 35846,
        "name": "IRIDIUM 33 DEB",
        "group": "iridium-33-debris",
        "lat": 16.92978095048225,
        "lon": 60.495270572983266,
        "alt_km": 760.969750180273,
        "timestamp": "2025-12-11T10:53:16.274542+00:00",
        "meta_object_name": "IRIDIUM 33 DEB",
        "meta_object_id": "1997-051SW",
        "meta_epoch": "2025-12-10T23:09:37.938816",
        "meta_mean_motion": 14.43148066,
        "meta_eccentricity": 0.0018649,
        "meta_inclination": 86.3748,
        "meta_ra_of_asc_node": 59.598,
        "meta_arg_of_pericenter": 175.7823,
        "meta_mean_anomaly": 184.3539,
        "meta_ephemeris_type": 0,
        "meta_classification_type": "U",
        "meta_norad_cat_id": 35846,
        "meta_element_set_no": 999,
        "meta_rev_at_epoch": 71303,
        "meta_bstar": 0.00091839,
        "meta_mean_motion_dot": 3.109e-05,
        "meta_mean_motion_ddot": 0,
        "tle_line1": "1 35846U 97051SW  25344.96502244  .00003109  00000+0  91839-3 0  9993",
        "tle_line2": "2 35846  86.3748  59.5980 0018649 175.7823 184.3539 14.43148066713035"
      },
      "geometry": {
        "type": "Point",
        "coordinates": [
          60.495270572983266,
          16.92978095048225
        ]
      }
    },
    {
      "type": "Feature",
      "properties": {
        "norad_id": 35848,
        "name": "IRIDIUM 33 DEB",
        "group": "iridium-33-debris",
        "lat": 24.343624313665178,
        "lon": 18.339509178234284,
        "alt_km": 638.4499326254636,
        "timestamp": "2025-12-11T10:53:16.274553+00:00",
        "meta_object_name": "IRIDIUM 33 DEB",
        "meta_object_id": "1997-051SY",
        "meta_epoch": "2025-12-10T20:09:33.946272",
        "meta_mean_motion": 14.78567105,
        "meta_eccentricity": 0.0007483,
        "meta_inclination": 86.391,
        "meta_ra_of_asc_node": 16.979,
        "meta_arg_of_pericenter": 196.6944,
        "meta_mean_anomaly": 163.4031,
        "meta_ephemeris_type": 0,
        "meta_classification_type": "U",
        "meta_norad_cat_id": 35848,
        "meta_element_set_no": 999,
        "meta_rev_at_epoch": 66662,
        "meta_bstar": 0.0024266,
        "meta_mean_motion_dot": 0.00017798,
        "meta_mean_motion_ddot": 0,
        "tle_line1": "1 35848U 97051SY  25344.83997623  .00017798  00000+0  24266-2 0  9998",
        "tle_line2": "2 35848  86.3910  16.9790 0007483 196.6944 163.4031 14.78567105666628"
      },
      "geometry": {
        "type": "Point",
        "coordinates": [
          18.339509178234284,
          24.343624313665178
        ]
      }
    },
    {
      "type": "Feature",
      "properties": {
        "norad_id": 35850,
        "name": "IRIDIUM 33 DEB",
        "group": "iridium-33-debris",
        "lat": -10.763577025144318,
        "lon": -15.864297448391644,
        "alt_km": 642.8895645814773,
        "timestamp": "2025-12-11T10:53:16.274564+00:00",
        "meta_object_name": "IRIDIUM 33 DEB",
        "meta_object_id": "1997-051TA",
        "meta_epoch": "2025-12-06T07:30:15.621984",
        "meta_mean_motion": 14.78601393,
        "meta_eccentricity": 0.00083892,
        "meta_inclination": 86.3487,
        "meta_ra_of_asc_node": 347.1693,
        "meta_arg_of_pericenter": 210.267,
        "meta_mean_anomaly": 149.8067,
        "meta_ephemeris_type": 0,
        "meta_classification_type": "U",
        "meta_norad_cat_id": 35850,
        "meta_element_set_no": 999,
        "meta_rev_at_epoch": 71262,
        "meta_bstar": 0.0028291764,
        "meta_mean_motion_dot": 0.00020775,
        "meta_mean_motion_ddot": 0,
        "tle_line1": "1 35850U 97051TA  25340.31268081  .00020775  00000+0  28292-2 0  9991",
        "tle_line2": "2 35850  86.3487 347.1693 0008389 210.2670 149.8067 14.78601393712623"
      },
      "geometry": {
        "type": "Point",
        "coordinates": [
          -15.864297448391644,
          -10.763577025144318
        ]
      }
    }
  ]
}